CCSDS_OMM_VERS = 2.0
CREATION_DATE  = 
ORIGINATOR     = 

OBJECT_NAME    = STARLINK-36953
OBJECT_ID      = 2026-039AA
CENTER_NAME    = EARTH
REF_FRAME      = TEME
TIME_SYSTEM    = UTC
MEAN_ELEMENT_THEORY = SGP/SGP4

EPOCH          = 2026-03-28T20:00:01.999008
MEAN_MOTION    = 15.27538334
ECCENTRICITY   = .0001709
INCLINATION    = 42.9997
RA_OF_ASC_NODE = 300.6259
ARG_OF_PERICENTER = 271.9879
MEAN_ANOMALY   = 73.1275

EPHEMERIS_TYPE = 0
CLASSIFICATION_TYPE = U
NORAD_CAT_ID   = 68010
ELEMENT_SET_NO = 999
REV_AT_EPOCH   = 595
BSTAR          = .85164E-3
MEAN_MOTION_DOT = .23217E-3
MEAN_MOTION_DDOT = 0

CCSDS_OMM_VERS = 2.0
CREATION_DATE  = 
ORIGINATOR     = 

OBJECT_NAME    = STARLINK-36991
OBJECT_ID      = 2026-039AB
CENTER_NAME    = EARTH
REF_FRAME      = TEME
TIME_SYSTEM    = UTC
MEAN_ELEMENT_THEORY = SGP/SGP4

EPOCH          = 2026-03-28T21:05:30.785856
MEAN_MOTION    = 15.49882319
ECCENTRICITY   = .0008741
INCLINATION    = 43.0004
RA_OF_ASC_NODE = 300.9581
ARG_OF_PERICENTER = 120.1850
MEAN_ANOMALY   = 239.9876

EPHEMERIS_TYPE = 0
CLASSIFICATION_TYPE = U
NORAD_CAT_ID   = 68011
ELEMENT_SET_NO = 999
REV_AT_EPOCH   = 463
BSTAR          = .5954E-3
MEAN_MOTION_DOT = .33929E-3
MEAN_MOTION_DDOT = 0

CCSDS_OMM_VERS = 2.0
CREATION_DATE  = 
ORIGINATOR     = 

OBJECT_NAME    = STARLINK-36936
OBJECT_ID      = 2026-039AC
CENTER_NAME    = EARTH
REF_FRAME      = TEME
TIME_SYSTEM    = UTC
MEAN_ELEMENT_THEORY = SGP/SGP4

EPOCH          = 2026-03-28T20:00:01.999008
MEAN_MOTION    = 15.39721013
ECCENTRICITY   = .000154
INCLINATION    = 43.0005
RA_OF_ASC_NODE = 300.6337
ARG_OF_PERICENTER = 252.3583
MEAN_ANOMALY   = 93.1374

EPHEMERIS_TYPE = 0
CLASSIFICATION_TYPE = U
NORAD_CAT_ID   = 68012
ELEMENT_SET_NO = 999
REV_AT_EPOCH   = 595
BSTAR          = -.53395E-1
MEAN_MOTION_DOT = -.1930641E-1
MEAN_MOTION_DDOT = 0

CCSDS_OMM_VERS = 2.0
CREATION_DATE  = 
ORIGINATOR     = 

OBJECT_NAME    = STARLINK-36967
OBJECT_ID      = 2026-039AD
CENTER_NAME    = EARTH
REF_FRAME      = TEME
TIME_SYSTEM    = UTC
MEAN_ELEMENT_THEORY = SGP/SGP4

EPOCH          = 2026-03-27T21:46:16.357728
MEAN_MOTION    = 15.50628686
ECCENTRICITY   = .0001653
INCLINATION    = 42.9999
RA_OF_ASC_NODE = 306.5649
ARG_OF_PERICENTER = 259.5586
MEAN_ANOMALY   = 100.5087

EPHEMERIS_TYPE = 0
CLASSIFICATION_TYPE = U
NORAD_CAT_ID   = 68013
ELEMENT_SET_NO = 999
REV_AT_EPOCH   = 448
BSTAR          = .18536E-2
MEAN_MOTION_DOT = .110139E-2
MEAN_MOTION_DDOT = 0

CCSDS_OMM_VERS = 2.0
CREATION_DATE  = 
ORIGINATOR     = 

OBJECT_NAME    = STARLINK-36985
OBJECT_ID      = 2026-039AE
CENTER_NAME    = EARTH
REF_FRAME      = TEME
TIME_SYSTEM    = UTC
MEAN_ELEMENT_THEORY = SGP/SGP4

EPOCH          = 2026-03-28T20:00:01.999008
MEAN_MOTION    = 15.27554673
ECCENTRICITY   = .0001353
INCLINATION    = 42.9994
RA_OF_ASC_NODE = 300.5211
ARG_OF_PERICENTER = 271.4875
MEAN_ANOMALY   = 116.1675

EPHEMERIS_TYPE = 0
CLASSIFICATION_TYPE = U
NORAD_CAT_ID   = 68014
ELEMENT_SET_NO = 999
REV_AT_EPOCH   = 595
BSTAR          = .44217E-3
MEAN_MOTION_DOT = .11916E-3
MEAN_MOTION_DDOT = 0

CCSDS_OMM_VERS = 2.0
CREATION_DATE  = 
ORIGINATOR     = 

OBJECT_NAME    = STARLINK-36335
OBJECT_ID      = 2026-040A
CENTER_NAME    = EARTH
REF_FRAME      = TEME
TIME_SYSTEM    = UTC
MEAN_ELEMENT_THEORY = SGP/SGP4

EPOCH          = 2026-03-28T19:15:13.821120
MEAN_MOTION    = 15.75666337
ECCENTRICITY   = .0003221
INCLINATION    = 97.2863
RA_OF_ASC_NODE = 37.1845
ARG_OF_PERICENTER = 143.2550
MEAN_ANOMALY   = 216.8937

EPHEMERIS_TYPE = 0
CLASSIFICATION_TYPE = U
NORAD_CAT_ID   = 68015
ELEMENT_SET_NO = 999
REV_AT_EPOCH   = 436
BSTAR          = .33695E-2
MEAN_MOTION_DOT = .547143E-2
MEAN_MOTION_DDOT = 0

CCSDS_OMM_VERS = 2.0
CREATION_DATE  = 
ORIGINATOR     = 

OBJECT_NAME    = STARLINK-36923
OBJECT_ID      = 2026-040B
CENTER_NAME    = EARTH
REF_FRAME      = TEME
TIME_SYSTEM    = UTC
MEAN_ELEMENT_THEORY = SGP/SGP4

EPOCH          = 2026-03-28T20:45:11.299104
MEAN_MOTION    = 15.75241811
ECCENTRICITY   = .0001752
INCLINATION    = 97.2860
RA_OF_ASC_NODE = 37.2542
ARG_OF_PERICENTER = 65.9812
MEAN_ANOMALY   = 294.1636

EPHEMERIS_TYPE = 0
CLASSIFICATION_TYPE = U
NORAD_CAT_ID   = 68016
ELEMENT_SET_NO = 999
REV_AT_EPOCH   = 437
BSTAR          = .10601E-2
MEAN_MOTION_DOT = .161372E-2
MEAN_MOTION_DDOT = 0

CCSDS_OMM_VERS = 2.0
CREATION_DATE  = 
ORIGINATOR     = 

OBJECT_NAME    = STARLINK-36568
OBJECT_ID      = 2026-040C
CENTER_NAME    = EARTH
REF_FRAME      = TEME
TIME_SYSTEM    = UTC
MEAN_ELEMENT_THEORY = SGP/SGP4

EPOCH          = 2026-03-28T19:12:41.351040
MEAN_MOTION    = 15.75259843
ECCENTRICITY   = .0001685
INCLINATION    = 97.2875
RA_OF_ASC_NODE = 37.1883
ARG_OF_PERICENTER = 87.9644
MEAN_ANOMALY   = 272.1814

EPHEMERIS_TYPE = 0
CLASSIFICATION_TYPE = U
NORAD_CAT_ID   = 68017
ELEMENT_SET_NO = 999
REV_AT_EPOCH   = 436
BSTAR          = .12586E-2
MEAN_MOTION_DOT = .192472E-2
MEAN_MOTION_DDOT = 0

CCSDS_OMM_VERS = 2.0
CREATION_DATE  = 
ORIGINATOR     = 

OBJECT_NAME    = STARLINK-36930
OBJECT_ID      = 2026-040D
CENTER_NAME    = EARTH
REF_FRAME      = TEME
TIME_SYSTEM    = UTC
MEAN_ELEMENT_THEORY = SGP/SGP4

EPOCH          = 2026-03-28T20:00:01.999008
MEAN_MOTION    = 15.75120514
ECCENTRICITY   = .0001492
INCLINATION    = 97.2863
RA_OF_ASC_NODE = 37.2210
ARG_OF_PERICENTER = 78.6530
MEAN_ANOMALY   = 99.7895

EPHEMERIS_TYPE = 0
CLASSIFICATION_TYPE = U
NORAD_CAT_ID   = 68018
ELEMENT_SET_NO = 999
REV_AT_EPOCH   = 550
BSTAR          = .10399E-2
MEAN_MOTION_DOT = .157399E-2
MEAN_MOTION_DDOT = 0

CCSDS_OMM_VERS = 2.0
CREATION_DATE  = 
ORIGINATOR     = 

OBJECT_NAME    = STARLINK-36921
OBJECT_ID      = 2026-040E
CENTER_NAME    = EARTH
REF_FRAME      = TEME
TIME_SYSTEM    = UTC
MEAN_ELEMENT_THEORY = SGP/SGP4

EPOCH          = 2026-03-28T19:09:07.916256
MEAN_MOTION    = 15.75272984
ECCENTRICITY   = .0001994
INCLINATION    = 97.2857
RA_OF_ASC_NODE = 37.1948
ARG_OF_PERICENTER = 99.2159
MEAN_ANOMALY   = 260.9332

EPHEMERIS_TYPE = 0
CLASSIFICATION_TYPE = U
NORAD_CAT_ID   = 68019
ELEMENT_SET_NO = 999
REV_AT_EPOCH   = 436
BSTAR          = .15859E-2
MEAN_MOTION_DOT = .24419E-2
MEAN_MOTION_DDOT = 0

CCSDS_OMM_VERS = 2.0
CREATION_DATE  = 
ORIGINATOR     = 

OBJECT_NAME    = STARLINK-36928
OBJECT_ID      = 2026-040F
CENTER_NAME    = EARTH
REF_FRAME      = TEME
TIME_SYSTEM    = UTC
MEAN_ELEMENT_THEORY = SGP/SGP4

EPOCH          = 2026-03-28T19:10:39.452736
MEAN_MOTION    = 15.75216796
ECCENTRICITY   = .00013
INCLINATION    = 97.2862
RA_OF_ASC_NODE = 37.1913
ARG_OF_PERICENTER = 69.7030
MEAN_ANOMALY   = 290.4375

EPHEMERIS_TYPE = 0
CLASSIFICATION_TYPE = U
NORAD_CAT_ID   = 68020
ELEMENT_SET_NO = 999
REV_AT_EPOCH   = 436
BSTAR          = .15396E-2
MEAN_MOTION_DOT = .236251E-2
MEAN_MOTION_DDOT = 0

CCSDS_OMM_VERS = 2.0
CREATION_DATE  = 
ORIGINATOR     = 

OBJECT_NAME    = STARLINK-36858
OBJECT_ID      = 2026-040G
CENTER_NAME    = EARTH
REF_FRAME      = TEME
TIME_SYSTEM    = UTC
MEAN_ELEMENT_THEORY = SGP/SGP4

EPOCH          = 2026-03-24T12:55:13.776960
MEAN_MOTION    = 15.75331784
ECCENTRICITY   = .00016946
INCLINATION    = 97.2853
RA_OF_ASC_NODE = 32.8877
ARG_OF_PERICENTER = 78.8231
MEAN_ANOMALY   = 281.3225

EPHEMERIS_TYPE = 0
CLASSIFICATION_TYPE = U
NORAD_CAT_ID   = 68021
ELEMENT_SET_NO = 999
REV_AT_EPOCH   = 370
BSTAR          = .17848498E-2
MEAN_MOTION_DOT = .276588E-2
MEAN_MOTION_DDOT = 0

