STARLINK-36953          
1 68010U 26039AA  26087.83335647  .00023217  00000+0  85164-3 0  9998
2 68010  42.9997 300.6259 0001709 271.9879  73.1275 15.27538334  5957
STARLINK-36991          
1 68011U 26039AB  26087.87882854  .00033929  00000+0  59540-3 0  9990
2 68011  43.0004 300.9581 0008741 120.1850 239.9876 15.49882319  4639
STARLINK-36936          
1 68012U 26039AC  26087.83335647 -.01930641  00000+0 -53395-1 0  9990
2 68012  43.0005 300.6337 0001540 252.3583  93.1374 15.39721013  5959
STARLINK-36967          
1 68013U 26039AD  26086.90713377  .00110139  00000+0  18536-2 0  9996
2 68013  42.9999 306.5649 0001653 259.5586 100.5087 15.50628686  4484
STARLINK-36985          
1 68014U 26039AE  26087.83335647  .00011916  00000+0  44217-3 0  9999
2 68014  42.9994 300.5211 0001353 271.4875 116.1675 15.27554673  5957
STARLINK-36335          
1 68015U 26040A   26087.80224330  .00547143  00000+0  33695-2 0  9998
2 68015  97.2863  37.1845 0003221 143.2550 216.8937 15.75666337  4361
STARLINK-36923          
1 68016U 26040B   26087.86471411  .00161372  00000+0  10601-2 0  9997
2 68016  97.2860  37.2542 0001752  65.9812 294.1636 15.75241811  4374
STARLINK-36568          
1 68017U 26040C   26087.80047860  .00192472  00000+0  12586-2 0  9998
2 68017  97.2875  37.1883 0001685  87.9644 272.1814 15.75259843  4367
STARLINK-36930          
1 68018U 26040D   26087.83335647  .00157399  00000+0  10399-2 0  9994
2 68018  97.2863  37.2210 0001492  78.6530  99.7895 15.75120514  5508
STARLINK-36921          
1 68019U 26040E   26087.79800829  .00244190  00000+0  15859-2 0  9991
2 68019  97.2857  37.1948 0001994  99.2159 260.9332 15.75272984  4362
STARLINK-36928          
1 68020U 26040F   26087.79906774  .00236251  00000+0  15396-2 0  9994
2 68020  97.2862  37.1913 0001300  69.7030 290.4375 15.75216796  4367
STARLINK-36858          
1 68021U 26040G   26083.53835390  .00276588  00000+0  17848-2 0  9999
2 68021  97.2853  32.8877 0001694  78.8231 281.3225 15.75331784  3704
